start=new Date('2023-05-10T00:00:00.000Z').valueOf();
sats=[{"NORAD_CAT_ID":"51747","RA_OF_ASC_NODE":"287.5340","COUNTRY_CODE":"US","MEAN_MOTION":"15.08840667","REF_FRAME":"TEME","MEAN_MOTION_DDOT":"0.0000000000000","APOAPSIS":"540.638","ARG_OF_PERICENTER":"84.9877","DECAY_DATE":null,"REV_AT_EPOCH":"6724","SITE":"AFETR","LAUNCH_DATE":"2022-02-21","PERIOD":"95.438","EPOCH":"2023-05-09T05:29:25.944000","TLE_LINE1":"1 51747U 22016AK  23129.22877250  .00001223  00000-0  94931-4 0  9993","GP_ID":"231507156","OBJECT_NAME":"STARLINK-3446","PERIAPSIS":"538.849","TLE_LINE2":"2 51747  53.2172 287.5340 0001293  84.9877 275.1263 15.08840667 67243","INCLINATION":"53.2172","CLASSIFICATION_TYPE":"U","ELEMENT_SET_NO":"999","OBJECT_TYPE":"PAYLOAD","ECCENTRICITY":"0.00012930","FILE":"3904553","OBJECT_ID":"2022-016AK","EPHEMERIS_TYPE":"0","RCS_SIZE":"LARGE","CENTER_NAME":"EARTH","MEAN_ELEMENT_THEORY":"SGP4","BSTAR":"0.00009493100000","TIME_SYSTEM":"UTC","MEAN_MOTION_DOT":"0.00001223","SEMIMAJOR_AXIS":"6917.878","MEAN_ANOMALY":"275.1263"},{"MEAN_ANOMALY":"263.0080","SEMIMAJOR_AXIS":"6917.896","MEAN_MOTION_DOT":"0.00005835","TIME_SYSTEM":"UTC","BSTAR":"0.00038441000000","MEAN_ELEMENT_THEORY":"SGP4","CENTER_NAME":"EARTH","RCS_SIZE":"LARGE","EPHEMERIS_TYPE":"0","ECCENTRICITY":"0.00008120","FILE":"3904553","OBJECT_ID":"2022-016AL","OBJECT_TYPE":"PAYLOAD","ELEMENT_SET_NO":"999","INCLINATION":"53.2148","CLASSIFICATION_TYPE":"U","TLE_LINE2":"2 51748  53.2148 275.9322 0000812  97.1005 263.0080 15.08834822 67433","PERIAPSIS":"539.199","OBJECT_NAME":"STARLINK-3501","GP_ID":"231508407","TLE_LINE1":"1 51748U 22016AL  23129.57465125  .00005835  00000-0  38441-3 0  9992","EPOCH":"2023-05-09T13:47:29.868000","PERIOD":"95.438","LAUNCH_DATE":"2022-02-21","SITE":"AFETR","DECAY_DATE":null,"REV_AT_EPOCH":"6743","ARG_OF_PERICENTER":"97.1005","MEAN_MOTION_DDOT":"0.0000000000000","APOAPSIS":"540.323","REF_FRAME":"TEME","MEAN_MOTION":"15.08834822","COUNTRY_CODE":"US","RA_OF_ASC_NODE":"275.9322","NORAD_CAT_ID":"51748"},{"CLASSIFICATION_TYPE":"U","INCLINATION":"53.2166","ELEMENT_SET_NO":"999","PERIAPSIS":"539.027","TLE_LINE2":"2 51749  53.2166 285.9865 0001172  84.7645 275.3480 15.08809790 67299","OBJECT_TYPE":"PAYLOAD","FILE":"3904553","OBJECT_ID":"2022-016AM","ECCENTRICITY":"0.00011720","EPHEMERIS_TYPE":"0","RCS_SIZE":"LARGE","MEAN_ELEMENT_THEORY":"SGP4","BSTAR":"0.00085586000000","TIME_SYSTEM":"UTC","CENTER_NAME":"EARTH","SEMIMAJOR_AXIS":"6917.973","MEAN_MOTION_DOT":"0.00013348","MEAN_ANOMALY":"275.3480","RA_OF_ASC_NODE":"285.9865","COUNTRY_CODE":"US","NORAD_CAT_ID":"51749","MEAN_MOTION":"15.08809790","REF_FRAME":"TEME","APOAPSIS":"540.649","MEAN_MOTION_DDOT":"0.0000000000000","REV_AT_EPOCH":"6729","DECAY_DATE":null,"SITE":"AFETR","ARG_OF_PERICENTER":"84.7645","LAUNCH_DATE":"2022-02-21","PERIOD":"95.439","EPOCH":"2023-05-09T14:28:36.945696","GP_ID":"231508144","TLE_LINE1":"1 51749U 22016AM  23129.60320539  .00013348  00000-0  85586-3 0  9996","OBJECT_NAME":"STARLINK-3451"},{"EPOCH":"2023-05-09T13:36:53.627904","PERIOD":"95.438","LAUNCH_DATE":"2022-02-21","OBJECT_NAME":"STARLINK-3505","TLE_LINE1":"1 51750U 22016AN  23129.56728736  .00002233  00000-0  15831-3 0  9991","GP_ID":"231506905","REF_FRAME":"TEME","MEAN_MOTION":"15.08840136","NORAD_CAT_ID":"51750","RA_OF_ASC_NODE":"275.9628","COUNTRY_CODE":"US","ARG_OF_PERICENTER":"90.1677","SITE":"AFETR","REV_AT_EPOCH":"6743","DECAY_DATE":null,"APOAPSIS":"540.208","MEAN_MOTION_DDOT":"0.0000000000000","CENTER_NAME":"EARTH","BSTAR":"0.00015831000000","TIME_SYSTEM":"UTC","MEAN_ELEMENT_THEORY":"SGP4","RCS_SIZE":"LARGE","MEAN_ANOMALY":"269.9392","MEAN_MOTION_DOT":"0.00002233","SEMIMAJOR_AXIS":"6917.880","OBJECT_TYPE":"PAYLOAD","TLE_LINE2":"2 51750  53.2160 275.9628 0000670  90.1677 269.9392 15.08840136 67435","PERIAPSIS":"539.281","ELEMENT_SET_NO":"999","CLASSIFICATION_TYPE":"U","INCLINATION":"53.2160","EPHEMERIS_TYPE":"0","OBJECT_ID":"2022-016AN","FILE":"3904553","ECCENTRICITY":"0.00006700"},{"LAUNCH_DATE":"2022-02-21","PERIOD":"95.439","EPOCH":"2023-05-09T13:52:49.092672","GP_ID":"231507656","TLE_LINE1":"1 51751U 22016AP  23129.57834598  .00019998  00000-0  12720-2 0  9996","OBJECT_NAME":"STARLINK-3506","COUNTRY_CODE":"US","RA_OF_ASC_NODE":"275.9153","NORAD_CAT_ID":"51751","MEAN_MOTION":"15.08811647","REF_FRAME":"TEME","APOAPSIS":"540.721","MEAN_MOTION_DDOT":"0.0000000000000","DECAY_DATE":null,"REV_AT_EPOCH":"6743","SITE":"AFETR","ARG_OF_PERICENTER":"87.0589","RCS_SIZE":"LARGE","MEAN_ELEMENT_THEORY":"SGP4","BSTAR":"0.00127200000000","TIME_SYSTEM":"UTC","CENTER_NAME":"EARTH","SEMIMAJOR_AXIS":"6917.967","MEAN_MOTION_DOT":"0.00019998","MEAN_ANOMALY":"273.0551","INCLINATION":"53.2165","CLASSIFICATION_TYPE":"U","ELEMENT_SET_NO":"999","PERIAPSIS":"538.943","TLE_LINE2":"2 51751  53.2165 275.9153 0001285  87.0589 273.0551 15.08811647 67432","OBJECT_TYPE":"PAYLOAD","ECCENTRICITY":"0.00012850","FILE":"3904553","OBJECT_ID":"2022-016AP","EPHEMERIS_TYPE":"0"},{"SEMIMAJOR_AXIS":"6917.860","MEAN_MOTION_DOT":"0.00004774","MEAN_ANOMALY":"274.9704","RCS_SIZE":"LARGE","MEAN_ELEMENT_THEORY":"SGP4","TIME_SYSTEM":"UTC","BSTAR":"0.00031775000000","CENTER_NAME":"EARTH","FILE":"3904553","OBJECT_ID":"2022-016AQ","ECCENTRICITY":"0.00008340","EPHEMERIS_TYPE":"0","INCLINATION":"53.2155","CLASSIFICATION_TYPE":"U","ELEMENT_SET_NO":"999","PERIAPSIS":"539.148","TLE_LINE2":"2 51752  53.2155 275.9779 0000834  85.1383 274.9704 15.08846789 67431","OBJECT_TYPE":"PAYLOAD","GP_ID":"231507907","TLE_LINE1":"1 51752U 22016AQ  23129.56360791  .00004774  00000-0  31775-3 0  9993","OBJECT_NAME":"STARLINK-3511","LAUNCH_DATE":"2022-02-21","PERIOD":"95.437","EPOCH":"2023-05-09T13:31:35.723424","MEAN_MOTION_DDOT":"0.0000000000000","APOAPSIS":"540.302","DECAY_DATE":null,"REV_AT_EPOCH":"6743","SITE":"AFETR","ARG_OF_PERICENTER":"85.1383","COUNTRY_CODE":"US","RA_OF_ASC_NODE":"275.9779","NORAD_CAT_ID":"51752","MEAN_MOTION":"15.08846789","REF_FRAME":"TEME"},{"RCS_SIZE":"LARGE","CENTER_NAME":"EARTH","MEAN_ELEMENT_THEORY":"SGP4","TIME_SYSTEM":"UTC","BSTAR":"0.00014598000000","MEAN_MOTION_DOT":"0.00002036","SEMIMAJOR_AXIS":"6917.875","MEAN_ANOMALY":"266.9525","PERIAPSIS":"538.986","TLE_LINE2":"2 51753  53.2160 275.9454 0001091  93.1592 266.9525 15.08841651 67430","CLASSIFICATION_TYPE":"U","INCLINATION":"53.2160","ELEMENT_SET_NO":"999","OBJECT_TYPE":"PAYLOAD","FILE":"3904553","ECCENTRICITY":"0.00010910","OBJECT_ID":"2022-016AR","EPHEMERIS_TYPE":"0","LAUNCH_DATE":"2022-02-21","PERIOD":"95.437","EPOCH":"2023-05-09T13:42:11.498688","TLE_LINE1":"1 51753U 22016AR  23129.57096642  .00002036  00000-0  14598-3 0  9999","GP_ID":"231508645","OBJECT_NAME":"STARLINK-3507","NORAD_CAT_ID":"51753","COUNTRY_CODE":"US","RA_OF_ASC_NODE":"275.9454","MEAN_MOTION":"15.08841651","REF_FRAME":"TEME","MEAN_MOTION_DDOT":"0.0000000000000","APOAPSIS":"540.495","ARG_OF_PERICENTER":"93.1592","DECAY_DATE":null,"REV_AT_EPOCH":"6743","SITE":"AFETR"},{"MEAN_MOTION":"15.10486169","REF_FRAME":"TEME","NORAD_CAT_ID":"51754","COUNTRY_CODE":"US","RA_OF_ASC_NODE":"279.7751","ARG_OF_PERICENTER":"88.7970","DECAY_DATE":null,"REV_AT_EPOCH":"6730","SITE":"AFETR","APOAPSIS":"535.176","MEAN_MOTION_DDOT":"0.0000000000000","PERIOD":"95.334","EPOCH":"2023-05-08T16:18:45.181440","LAUNCH_DATE":"2022-02-21","OBJECT_NAME":"STARLINK-3457","TLE_LINE1":"1 51754U 22016AS  23128.67968960  .00004370  00000-0  27983-3 0  9996","GP_ID":"231475137","OBJECT_TYPE":"PAYLOAD","PERIAPSIS":"534.261","TLE_LINE2":"2 51754  53.2149 279.7751 0000662  88.7970 271.3098 15.10486169 67306","CLASSIFICATION_TYPE":"U","INCLINATION":"53.2149","ELEMENT_SET_NO":"999","EPHEMERIS_TYPE":"0","OBJECT_ID":"2022-016AS","FILE":"3904305","ECCENTRICITY":"0.00006620","CENTER_NAME":"EARTH","MEAN_ELEMENT_THEORY":"SGP4","TIME_SYSTEM":"UTC","BSTAR":"0.00027983000000","RCS_SIZE":"LARGE","MEAN_ANOMALY":"271.3098","MEAN_MOTION_DOT":"0.00004370","SEMIMAJOR_AXIS":"6912.853"},{"SEMIMAJOR_AXIS":"6917.859","MEAN_MOTION_DOT":"0.00006133","MEAN_ANOMALY":"287.8992","RCS_SIZE":"LARGE","MEAN_ELEMENT_THEORY":"SGP4","TIME_SYSTEM":"UTC","BSTAR":"0.00040298000000","CENTER_NAME":"EARTH","FILE":"3904553","ECCENTRICITY":"0.00010220","OBJECT_ID":"2022-016AT","EPHEMERIS_TYPE":"0","INCLINATION":"53.2157","CLASSIFICATION_TYPE":"U","ELEMENT_SET_NO":"999","PERIAPSIS":"539.017","TLE_LINE2":"2 51755  53.2157 275.9959 0001022  72.2111 287.8992 15.08847129 67433","OBJECT_TYPE":"PAYLOAD","GP_ID":"231507157","TLE_LINE1":"1 51755U 22016AT  23129.55992908  .00006133  00000-0  40298-3 0  9997","OBJECT_NAME":"STARLINK-3460","LAUNCH_DATE":"2022-02-21","PERIOD":"95.437","EPOCH":"2023-05-09T13:26:17.872512","MEAN_MOTION_DDOT":"0.0000000000000","APOAPSIS":"540.431","DECAY_DATE":null,"REV_AT_EPOCH":"6743","SITE":"AFETR","ARG_OF_PERICENTER":"72.2111","RA_OF_ASC_NODE":"275.9959","COUNTRY_CODE":"US","NORAD_CAT_ID":"51755","MEAN_MOTION":"15.08847129","REF_FRAME":"TEME"},{"COUNTRY_CODE":"US","RA_OF_ASC_NODE":"275.8338","NORAD_CAT_ID":"51756","REF_FRAME":"TEME","MEAN_MOTION":"15.08832611","APOAPSIS":"540.137","MEAN_MOTION_DDOT":"0.0000000000000","SITE":"AFETR","REV_AT_EPOCH":"6744","DECAY_DATE":null,"ARG_OF_PERICENTER":"71.2965","LAUNCH_DATE":"2022-02-21","EPOCH":"2023-05-09T14:19:17.664672","PERIOD":"95.438","TLE_LINE1":"1 51756U 22016AU  23129.59673223  .00001536  00000-0  11459-3 0  9997","GP_ID":"231508408","OBJECT_NAME":"STARLINK-3513","ELEMENT_SET_NO":"999","INCLINATION":"53.2160","CLASSIFICATION_TYPE":"U","TLE_LINE2":"2 51756  53.2160 275.8338 0000533  71.2965 288.8085 15.08832611 67445","PERIAPSIS":"539.399","OBJECT_TYPE":"PAYLOAD","ECCENTRICITY":"0.00005330","FILE":"3904553","OBJECT_ID":"2022-016AU","EPHEMERIS_TYPE":"0","RCS_SIZE":"LARGE","TIME_SYSTEM":"UTC","BSTAR":"0.00011459000000","MEAN_ELEMENT_THEORY":"SGP4","CENTER_NAME":"EARTH","SEMIMAJOR_AXIS":"6917.903","MEAN_MOTION_DOT":"0.00001536","MEAN_ANOMALY":"288.8085"}];
